{"type":"FeatureCollection","features":[{"type":"Feature","id":1,"geometry":{"type":"Polygon","coordinates":[[[-76.756118146970792,5.5534482061130062],[-76.75608450355179,5.5537729269045926],[-76.755992646009375,5.5541670079447858],[-76.755819006143312,5.5545335029162448],[-76.755694443741618,5.5546952064292361],[-76.755542518511575,5.5549515436181682],[-76.755395968864917,5.5552319184596994],[-76.755243435537665,5.5554438448057795],[-76.755008745603575,5.5557544121604217],[-76.754641429623163,5.5562393914132873],[-76.754179137004897,5.5568571734061711],[-76.753680576649714,5.5574113073670022],[-76.753263354639458,5.5577533223083222],[-76.752787837987029,5.5583676959739474],[-76.7532847702292,5.5586609132600291],[-76.753424655385842,5.5584920676051102],[-76.753630485452121,5.5581704976915072],[-76.754540126366663,5.557230165682248],[-76.755145870457156,5.5578690944957518],[-76.755917360682503,5.5569978179429143],[-76.757254719144626,5.5581424757337796],[-76.757658940249826,5.5575419912583808],[-76.75822179578951,5.5578271375184647],[-76.759614122504587,5.5567958472007826],[-76.759640577027724,5.5559881883763422],[-76.759903618724721,5.5559483769627951],[-76.760047702621719,5.5559380383208401],[-76.760081630172834,5.5551323632848035],[-76.760062031255103,5.5547606614671059],[-76.760097749626624,5.5546537172722275],[-76.760076818982725,5.5545158684899452],[-76.760156739736544,5.5544684718737516],[-76.760150352542496,5.5542760491588057],[-76.759937920661642,5.554276749258519],[-76.758693453511285,5.5538536132017091],[-76.757993726047729,5.5536355663976638],[-76.758455182506282,5.5532135799964379],[-76.75826964809923,5.552910697268608],[-76.757641300533535,5.5531548846097376],[-76.757070286441007,5.5535928991680512],[-76.756904869324757,5.5535677611301795],[-76.756686346644784,5.5531452252030684],[-76.756380287196095,5.5532681865053641],[-76.756118146970792,5.5534482061130062]]]},"properties":{"OBJECTID":1,"Id":0,"Nombre":"VILLA CONTO","Area":240124.84148100001,"Shape_Length":2691.758532473124,"Shape_Area":240124.83688430395}},{"type":"Feature","id":2,"geometry":{"type":"Polygon","coordinates":[[[-76.868937950302723,5.6006025485864486],[-76.869049803316898,5.6006292185882103],[-76.86906771793906,5.6004542128853307],[-76.869111337711843,5.6000280955308321],[-76.869130077109844,5.599845019970866],[-76.869135394130168,5.5998129203505549],[-76.8690769203413,5.5998058944985587],[-76.869011447187091,5.5997953120676502],[-76.86896545168436,5.5997878786287059],[-76.868870795228602,5.5997707692257546],[-76.868802515565378,5.599772790018787],[-76.868745253143317,5.5997862977923232],[-76.86868648913827,5.5997940527320056],[-76.868671149719503,5.5997901503737326],[-76.868661632799331,5.5998770013960621],[-76.868641174922473,5.5998766472392196],[-76.868450752120424,5.5998206216864936],[-76.868443246099858,5.5999787923130633],[-76.86799989887065,5.5998512609644839],[-76.867902863485426,5.5998585970042392],[-76.867851320017053,5.5998754485347302],[-76.867760962252333,5.599906739590427],[-76.867657797429629,5.5998913919305586],[-76.867645424104893,5.6000265456138028],[-76.867798006722751,5.6000420749816957],[-76.868587767268323,5.6002745177615552],[-76.868747410057395,5.6003245992549688],[-76.868736251855069,5.6005390860589248],[-76.868892807692674,5.6005862757870464],[-76.868937950302723,5.6006025485864486]]]},"properties":{"OBJECTID":2,"Id":0,"Nombre":"BOCA DE PARTADÓ","Area":7208.6446025100004,"Shape_Length":486.70380588565251,"Shape_Area":7208.6457734991109}},{"type":"Feature","id":3,"geometry":{"type":"Polygon","coordinates":[[[-76.811860094600078,5.5557462767130259],[-76.811870232234895,5.5558452619025465],[-76.812210494348435,5.5557500829520077],[-76.812550758033808,5.5556358689016454],[-76.813214626616343,5.5555930393969906],[-76.813255077577281,5.5555954174180711],[-76.813238422010784,5.5555621067047714],[-76.813213096253918,5.5554982971506472],[-76.8131315998247,5.555366236773728],[-76.813084406956747,5.5552904616553107],[-76.813047128788597,5.5552306069517785],[-76.812919828408184,5.5551044964620653],[-76.812889198297199,5.5550868081592588],[-76.812835357010712,5.5550557163239533],[-76.812849931703681,5.5547395464174558],[-76.812855335440716,5.5546223379869017],[-76.812866290813147,5.5543847090002698],[-76.813022108071038,5.5543960345396455],[-76.813355110867491,5.5544202396278619],[-76.813406428065733,5.5544239697206503],[-76.813469482815009,5.5541836444818786],[-76.813479715219529,5.5541453350631107],[-76.813525400854488,5.5539754418902865],[-76.813525860768721,5.5539040969280773],[-76.813267451786643,5.5539026698343736],[-76.812964784653147,5.5539497829507782],[-76.812699236040871,5.5540168839248807],[-76.812487940272263,5.554083984592328],[-76.812373725341686,5.5541468023915934],[-76.812252372710162,5.554183921822677],[-76.812128164834078,5.5542139031742828],[-76.811839775086497,5.5543124135200443],[-76.811865806321279,5.5544028319257528],[-76.811912919343854,5.5546198390790931],[-76.811970320760736,5.5548923305383617],[-76.811975022206369,5.5549146537712506],[-76.811982874597092,5.5549474913939312],[-76.811990700701315,5.5550382667156466],[-76.811993582795267,5.5550716990459588],[-76.811800847039891,5.5553101210929805],[-76.811807857822771,5.5553617453907123],[-76.81183295096902,5.5555465193701856],[-76.811840108427702,5.5555992245461407],[-76.811860094600078,5.5557462767130259]]]},"properties":{"OBJECTID":3,"Id":0,"Nombre":"CHIGUARANDÓ ALTO","Area":23868.821361999999,"Shape_Length":802.23236625339462,"Shape_Area":23868.821540868637}},{"type":"Feature","id":4,"geometry":{"type":"Polygon","coordinates":[[[-76.77984568853752,5.5658020300305449],[-76.779739792489167,5.5658283207861112],[-76.779327066211508,5.5659307860608305],[-76.779318044858499,5.5659333237874629],[-76.779317537441315,5.565957148067012],[-76.779357073867629,5.5660666327852617],[-76.779211601075403,5.5661279644966024],[-76.779170036560629,5.5661416499516685],[-76.778780249909929,5.5662764790156016],[-76.778730826078871,5.5662995119522289],[-76.778728042068366,5.5663008094651731],[-76.778733898628161,5.5663110595840548],[-76.778825419843187,5.5664814249238974],[-76.779039394877188,5.5666067665815655],[-76.779072178132239,5.5666259701929857],[-76.779132050369626,5.5666610419218667],[-76.779184216250385,5.5666915999329571],[-76.779435007876856,5.5668385085417595],[-76.779489492542382,5.5668704215637685],[-76.77949843566401,5.5668756615131318],[-76.779499582930853,5.5669410269347619],[-76.779499768752586,5.5669516186799131],[-76.779499787030915,5.566952644443024],[-76.779500488251173,5.566992661921673],[-76.779507509948274,5.5673928953410634],[-76.779507582133647,5.5673969938839987],[-76.779533218825847,5.5674295824761133],[-76.779537299865822,5.567434769656308],[-76.77958059929432,5.5674898132848902],[-76.779638608186588,5.5675845577475238],[-76.779671478047931,5.5676174285868489],[-76.779717113514806,5.5676517255552973],[-76.779732629350377,5.5676527737035579],[-76.77974166592314,5.5676699416057369],[-76.779762257562552,5.5676889497922559],[-76.779789185311174,5.5677063739489485],[-76.779812945387462,5.5677142947402114],[-76.779832481024883,5.5676975736773446],[-76.780158078047251,5.5674621761141498],[-76.780106754965999,5.5673869825726259],[-76.780100087543246,5.5673772127099141],[-76.780063478646184,5.5673235774001908],[-76.779993079200864,5.5672179782918398],[-76.779918280140762,5.5670969785742086],[-76.779925056127084,5.5669601408286624],[-76.78000699556047,5.5665980208696588],[-76.780012351259813,5.5665743533123662],[-76.779827905467926,5.5661533654547934],[-76.779845810563515,5.5661474916565243],[-76.779878401681771,5.5661368023477085],[-76.780003902853593,5.5660956368222276],[-76.779982783074175,5.5659224547122426],[-76.779976250993556,5.5658898725868378],[-76.779944767863896,5.5657774320220543],[-76.77984568853752,5.5658020300305449]]]},"properties":{"OBJECTID":4,"Id":0,"Nombre":"CHIVIGUIDÓ","Area":15206.946012300001,"Shape_Length":641.02907240733873,"Shape_Area":15206.948509145594}},{"type":"Feature","id":5,"geometry":{"type":"Polygon","coordinates":[[[-76.753775200367159,5.5844562835555331],[-76.753719714608451,5.5844825201471116],[-76.753676071450045,5.5845213901663673],[-76.753652765161831,5.5845421477664896],[-76.753504220582698,5.5847618263946606],[-76.753462376666178,5.5848779442753269],[-76.753438316987584,5.5850390414976632],[-76.753390195838961,5.5851049452884007],[-76.753356062181098,5.585261350394906],[-76.753351491015408,5.5852859193093769],[-76.753338078250238,5.5852819249511487],[-76.753198042198804,5.5852486532427701],[-76.753070549163297,5.5852225015984782],[-76.753000079358401,5.5852131926627386],[-76.752983920217488,5.5852110581657453],[-76.752914126994483,5.5852066450603184],[-76.752906964516839,5.5854620939624757],[-76.752562699638332,5.5863536465303048],[-76.751910366281834,5.587460901449389],[-76.752019554152596,5.5875059273761742],[-76.752051960577333,5.5875196159279481],[-76.752209157300271,5.5875860196952818],[-76.752205225036775,5.5875955706613354],[-76.752367912773224,5.5877107242183177],[-76.75239603200599,5.5877294703865594],[-76.752421472601782,5.5877348263994771],[-76.752445574270453,5.5877361649976063],[-76.75255604239932,5.5876410959910068],[-76.752569478612912,5.5876477678496848],[-76.752736900890397,5.5877689290172823],[-76.752875170793459,5.5878724442170684],[-76.753300856679019,5.5874746703562144],[-76.753341678753657,5.5874365253784912],[-76.753514915463128,5.5874540077207522],[-76.753568847026159,5.5872122440225533],[-76.753576862968657,5.587179999369952],[-76.753857103860454,5.5868607553554543],[-76.753813315900686,5.5868304082023714],[-76.753669271225178,5.586730574995916],[-76.753998043876933,5.5863295600426683],[-76.754083989332315,5.5862247311891124],[-76.754238346360594,5.5863325954310801],[-76.75435364909309,5.5861856762483244],[-76.75432389330787,5.5860852517005632],[-76.754224950567121,5.5859742747945758],[-76.754186274277188,5.5859308949539708],[-76.754097412776247,5.5858807397736499],[-76.754084802893885,5.5858748700089196],[-76.754144429611827,5.5857472476599517],[-76.754246051381998,5.5854866719959748],[-76.754254916590597,5.5854906520773957],[-76.754304559916847,5.585367322810475],[-76.754217888906339,5.5853525212711688],[-76.754231180246578,5.5852029920902657],[-76.754238491654007,5.5851207425006972],[-76.754239990215439,5.585103846947109],[-76.754021725174951,5.5850750730562639],[-76.754027023104555,5.5850465882252545],[-76.75375214422391,5.5850005688834949],[-76.753926524073847,5.5845616814286743],[-76.753940516201141,5.5845264671458459],[-76.753856820745909,5.5844963887268291],[-76.753860938026079,5.5844793815910538],[-76.753775200367159,5.5844562835555331]]]},"properties":{"OBJECTID":5,"Id":0,"Nombre":"LOMA PUEBLO NUEVO","Area":47437.740079900002,"Shape_Length":1153.2236545573119,"Shape_Area":47437.737417166412}},{"type":"Feature","id":6,"geometry":{"type":"Polygon","coordinates":[[[-76.750076056157596,5.5891598655311983],[-76.74959595419449,5.5889200832205592],[-76.748996589436956,5.5894718919297999],[-76.748906894503278,5.5900266685211539],[-76.74887907239254,5.5905374607289531],[-76.748868269306698,5.5907928365132227],[-76.749242678450884,5.5910270678502085],[-76.749488580702149,5.5906020593045156],[-76.749862418912883,5.5897714767454332],[-76.750076056157596,5.5891598655311983]]]},"properties":{"OBJECTID":6,"Id":0,"Nombre":"BOCAS DE PAIMADÓ","Area":17775.334752399998,"Shape_Length":573.01479115023653,"Shape_Area":17775.333351802852}},{"type":"Feature","id":7,"geometry":{"type":"Polygon","coordinates":[[[-76.912589067958507,5.5716961604164634],[-76.912611263600894,5.571734387026968],[-76.912645790096576,5.5717689135722974],[-76.912691414869741,5.5718046737025952],[-76.912706142156182,5.5718158180219213],[-76.912765787022863,5.5718827440917842],[-76.912831294533106,5.5719463255299608],[-76.912898730617869,5.5720099076614424],[-76.91296038493283,5.5720657829672842],[-76.91304228327057,5.5721305672275259],[-76.91313681739183,5.5721891166563688],[-76.913189665033542,5.5722218471817948],[-76.913299487797573,5.5722835020007739],[-76.913422347453036,5.5723233032372068],[-76.913434282540393,5.572327331201441],[-76.913492200355165,5.5723357374870393],[-76.913567866655072,5.5723338695527147],[-76.913651940890048,5.5723189236862689],[-76.913733212309396,5.572289965039765],[-76.913821021913364,5.5722385866275523],[-76.913826188404101,5.5722346371640095],[-76.913919142569767,5.5721751902966972],[-76.913983272732992,5.5721147605860999],[-76.9140572680422,5.5720173329578664],[-76.914098582695516,5.5719278220913786],[-76.914101666421587,5.5719211388977996],[-76.91412429857202,5.5718396665102023],[-76.914138664004213,5.5717879471836405],[-76.914167028997184,5.5716535217578897],[-76.914144238842084,5.571646333590512],[-76.914045957982509,5.5716302340055481],[-76.914035922666955,5.5716302890606526],[-76.913396610346823,5.5715094726778247],[-76.913391862977107,5.5715077228012433],[-76.913362711082726,5.5716348163869434],[-76.913352791838932,5.5716662481568395],[-76.913257408514681,5.5716234080194953],[-76.913203151480687,5.5715925802749071],[-76.913099572442775,5.5715148948179722],[-76.913030517435146,5.5714409091318569],[-76.912976261274125,5.5713558246354156],[-76.912843212638194,5.5711742957224502],[-76.91281642435473,5.5711945080325087],[-76.91269438340133,5.5712722175337097],[-76.912523713543209,5.5713582901960796],[-76.91245342686112,5.5714150136152583],[-76.912485486805849,5.5714865340684678],[-76.912533578654205,5.5715691513391983],[-76.912574271249355,5.5716604001230907],[-76.912589067958507,5.5716961604164634]]]},"properties":{"OBJECTID":7,"Id":0,"Nombre":"ANTADÓ LA PUNTA","Area":12590.821103099999,"Shape_Length":514.12810746227638,"Shape_Area":12590.820635142209}}]}